[{"OBJECT_NAME":"ONEWEB-0671","OBJECT_ID":"2023-029AL","EPOCH":"2026-03-09T17:50:38.622048","MEAN_MOTION":13.19725147,"ECCENTRICITY":0.00016026,"INCLINATION":87.9227,"RA_OF_ASC_NODE":324.7913,"ARG_OF_PERICENTER":84.1865,"MEAN_ANOMALY":275.945,"EPHEMERIS_TYPE":0,"CLASSIFICATION_TYPE":"U","NORAD_CAT_ID":55830,"ELEMENT_SET_NO":999,"REV_AT_EPOCH":14578,"BSTAR":-0.00024057224,"MEAN_MOTION_DOT":-8.3e-7,"MEAN_MOTION_DDOT":0},{"OBJECT_NAME":"THOR ABLESTAR DEB","OBJECT_ID":"1961-015CN","EPOCH":"2026-03-09T07:09:24.745248","MEAN_MOTION":12.51696167,"ECCENTRICITY":0.06496657,"INCLINATION":67.941,"RA_OF_ASC_NODE":29.3836,"ARG_OF_PERICENTER":219.7655,"MEAN_ANOMALY":296.6984,"EPHEMERIS_TYPE":0,"CLASSIFICATION_TYPE":"U","NORAD_CAT_ID":268,"ELEMENT_SET_NO":999,"REV_AT_EPOCH":94075,"BSTAR":0.00035315795,"MEAN_MOTION_DOT":7.1e-7,"MEAN_MOTION_DDOT":0}]
